{"type": "FeatureCollection", "features": [ {"type": "Feature", "properties": {"norad_id": 43437, "name": "SENTINEL-3B", "group": "resource", "lat": -7.1430957286019225, "lon": -124.31548739803493, "alt_km": 806.49697117902, "timestamp": "2025-12-17T15:50:09.434526+00:00", "meta": {"OBJECT_NAME": "SENTINEL-3B", "OBJECT_ID": "2018-039A", "EPOCH": "2025-12-17T03:10:48.238464", "MEAN_MOTION": 14.26735686, "ECCENTRICITY": 0.00016265, "INCLINATION": 98.6264, "RA_OF_ASC_NODE": 56.2549, "ARG_OF_PERICENTER": 97.3948, "MEAN_ANOMALY": 262.7417, "EPHEMERIS_TYPE": 0, "CLASSIFICATION_TYPE": "U", "NORAD_CAT_ID": 43437, "ELEMENT_SET_NO": 999, "REV_AT_EPOCH": 39816, "BSTAR": 6.8709058e-05, "MEAN_MOTION_DOT": 1.23e-06, "MEAN_MOTION_DDOT": 0}, "tle": {"line1": "1 43437U 18039A   25351.13250276  .00000123  00000+0  68709-4 0  9993", "line2": "2 43437  98.6264  56.2549 0001626  97.3948 262.7417 14.26735686398168"}}, "geometry": {"type": "Point", "coordinates": [-124.31548739803493, -7.1430957286019225]}}, {"type": "Feature", "properties": {"norad_id": 43461, "name": "GAOFEN-5 01", "group": "resource", "lat": 50.9697510715943, "lon": -55.83185693377344, "alt_km": 687.167527237817, "timestamp": "2025-12-17T15:50:09.434536+00:00", "meta": {"OBJECT_NAME": "GAOFEN-5 01", "OBJECT_ID": "2018-043A", "EPOCH": "2025-12-17T07:22:41.297952", "MEAN_MOTION": 14.60414862, "ECCENTRICITY": 6.66e-05, "INCLINATION": 98.4331, "RA_OF_ASC_NODE": 314.3545, "ARG_OF_PERICENTER": 317.6322, "MEAN_ANOMALY": 42.4826, "EPHEMERIS_TYPE": 0, "CLASSIFICATION_TYPE": "U", "NORAD_CAT_ID": 43461, "ELEMENT_SET_NO": 999, "REV_AT_EPOCH": 40514, "BSTAR": 9.127384e-05, "MEAN_MOTION_DOT": 3.93e-06, "MEAN_MOTION_DDOT": 0}, "tle": {"line1": "1 43461U 18043A   25351.30742243  .00000393  00000+0  91274-4 0  9996", "line2": "2 43461  98.4331 314.3545 0000666 317.6322  42.4826 14.60414862405141"}}, "geometry": {"type": "Point", "coordinates": [-55.83185693377344, 50.9697510715943]}}, {"type": "Feature", "properties": {"norad_id": 43484, "name": "GAOFEN-6", "group": "resource", "lat": -27.167749895400082, "lon": 59.7973886350433, "alt_km": 643.7632459340812, "timestamp": "2025-12-17T15:50:09.434547+00:00", "meta": {"OBJECT_NAME": "GAOFEN-6", "OBJECT_ID": "2018-048A", "EPOCH": "2025-12-17T07:49:40.673280", "MEAN_MOTION": 14.76574014, "ECCENTRICITY": 0.00130092, "INCLINATION": 97.8032, "RA_OF_ASC_NODE": 55.4392, "ARG_OF_PERICENTER": 50.0191, "MEAN_ANOMALY": 310.216, "EPHEMERIS_TYPE": 0, "CLASSIFICATION_TYPE": "U", "NORAD_CAT_ID": 43484, "ELEMENT_SET_NO": 999, "REV_AT_EPOCH": 40655, "BSTAR": 6.0964581e-05, "MEAN_MOTION_DOT": 3.76e-06, "MEAN_MOTION_DDOT": 0}, "tle": {"line1": "1 43484U 18048A   25351.32616520  .00000376  00000+0  60965-4 0  9990", "line2": "2 43484  97.8032  55.4392 0013009  50.0191 310.2160 14.76574014406553"}}, "geometry": {"type": "Point", "coordinates": [59.7973886350433, -27.167749895400082]}}, {"type": "Feature", "properties": {"norad_id": 43585, "name": "GAOFEN-11 01", "group": "resource", "lat": -14.66565241558162, "lon": 56.438286629271055, "alt_km": 421.8975311456452, "timestamp": "2025-12-17T15:50:09.434558+00:00", "meta": {"OBJECT_NAME": "GAOFEN-11 01", "OBJECT_ID": "2018-063A", "EPOCH": "2025-12-17T08:08:57.545952", "MEAN_MOTION": 15.49350224, "ECCENTRICITY": 0.00040834, "INCLINATION": 97.1562, "RA_OF_ASC_NODE": 54.2363, "ARG_OF_PERICENTER": 289.9058, "MEAN_ANOMALY": 70.1754, "EPHEMERIS_TYPE": 0, "CLASSIFICATION_TYPE": "U", "NORAD_CAT_ID": 43585, "ELEMENT_SET_NO": 999, "REV_AT_EPOCH": 41213, "BSTAR": 0.00023240254, "MEAN_MOTION_DOT": 0.00012646, "MEAN_MOTION_DDOT": 0}, "tle": {"line1": "1 43585U 18063A   25351.33955493  .00012646  00000+0  23240-3 0  9992", "line2": "2 43585  97.1562  54.2363 0004083 289.9058  70.1754 15.49350224412136"}}, "geometry": {"type": "Point", "coordinates": [56.438286629271055, -14.66565241558162]}}, {"type": "Feature", "properties": {"norad_id": 43613, "name": "ICESAT-2", "group": "resource", "lat": 68.38031448062459, "lon": -123.00660695565503, "alt_km": 473.54578761413904, "timestamp": "2025-12-17T15:50:09.434568+00:00", "meta": {"OBJECT_NAME": "ICESAT-2", "OBJECT_ID": "2018-070A", "EPOCH": "2025-12-17T06:06:30.360384", "MEAN_MOTION": 15.28267412, "ECCENTRICITY": 0.00026599, "INCLINATION": 92.0051, "RA_OF_ASC_NODE": 241.9555, "ARG_OF_PERICENTER": 130.6513, "MEAN_ANOMALY": 229.4968, "EPHEMERIS_TYPE": 0, "CLASSIFICATION_TYPE": "U", "NORAD_CAT_ID": 43613, "ELEMENT_SET_NO": 999, "REV_AT_EPOCH": 40467, "BSTAR": 0.00037318909, "MEAN_MOTION_DOT": 0.00010276, "MEAN_MOTION_DDOT": 0}, "tle": {"line1": "1 43613U 18070A   25351.25451806  .00010276  00000+0  37319-3 0  9991", "line2": "2 43613  92.0051 241.9555 0002659 130.6513 229.4968 15.28267412404677"}}, "geometry": {"type": "Point", "coordinates": [-123.00660695565503, 68.38031448062459]}}, {"type": "Feature", "properties": {"norad_id": 43719, "name": "HYSIS", "group": "resource", "lat": 44.401783067613295, "lon": 46.68735270748844, "alt_km": 628.9852469392717, "timestamp": "2025-12-17T15:50:09.434579+00:00", "meta": {"OBJECT_NAME": "HYSIS", "OBJECT_ID": "2018-096A", "EPOCH": "2025-12-17T07:30:46.701792", "MEAN_MOTION": 14.78657847, "ECCENTRICITY": 0.00011816, "INCLINATION": 98.0098, "RA_OF_ASC_NODE": 54.2686, "ARG_OF_PERICENTER": 52.1071, "MEAN_ANOMALY": 308.0246, "EPHEMERIS_TYPE": 0, "CLASSIFICATION_TYPE": "U", "NORAD_CAT_ID": 43719, "ELEMENT_SET_NO": 999, "REV_AT_EPOCH": 38054, "BSTAR": 0.00010935551, "MEAN_MOTION_DOT": 7.49e-06, "MEAN_MOTION_DDOT": 0}, "tle": {"line1": "1 43719U 18096A   25351.31304053  .00000749  00000+0  10936-3 0  9994", "line2": "2 43719  98.0098  54.2686 0001181  52.1071 308.0246 14.78657847380548"}}, "geometry": {"type": "Point", "coordinates": [46.68735270748844, 44.401783067613295]}}, {"type": "Feature", "properties": {"norad_id": 43783, "name": "KAZSTSAT", "group": "resource", "lat": -71.3449594380476, "lon": 49.45243475355421, "alt_km": 572.3538796521498, "timestamp": "2025-12-17T15:50:09.434589+00:00", "meta": {"OBJECT_NAME": "KAZSTSAT", "OBJECT_ID": "2018-099AB", "EPOCH": "2025-12-17T08:09:06.065856", "MEAN_MOTION": 14.9936173, "ECCENTRICITY": 0.0005917, "INCLINATION": 97.4543, "RA_OF_ASC_NODE": 26.3271, "ARG_OF_PERICENTER": 309.8479, "MEAN_ANOMALY": 50.2223, "EPHEMERIS_TYPE": 0, "CLASSIFICATION_TYPE": "U", "NORAD_CAT_ID": 43783, "ELEMENT_SET_NO": 999, "REV_AT_EPOCH": 38405, "BSTAR": 5.2393034e-05, "MEAN_MOTION_DOT": 5.85e-06, "MEAN_MOTION_DDOT": 0}, "tle": {"line1": "1 43783U 18099AB  25351.33965354  .00000585  00000+0  52393-4 0  9999", "line2": "2 43783  97.4543  26.3271 0005917 309.8479  50.2223 14.99361730384059"}}, "geometry": {"type": "Point", "coordinates": [49.45243475355421, -71.3449594380476]}}, {"type": "Feature", "properties": {"norad_id": 43831, "name": "SAUDISAT 5A", "group": "resource", "lat": 81.46009140398986, "lon": -7.322539334091569, "alt_km": 473.9749898785176, "timestamp": "2025-12-17T15:50:09.434600+00:00", "meta": {"OBJECT_NAME": "SAUDISAT 5A", "OBJECT_ID": "2018-102A", "EPOCH": "2025-12-17T07:35:33.400320", "MEAN_MOTION": 15.25713701, "ECCENTRICITY": 0.00115692, "INCLINATION": 97.3354, "RA_OF_ASC_NODE": 51.4194, "ARG_OF_PERICENTER": 62.2683, "MEAN_ANOMALY": 297.9728, "EPHEMERIS_TYPE": 0, "CLASSIFICATION_TYPE": "U", "NORAD_CAT_ID": 43831, "ELEMENT_SET_NO": 999, "REV_AT_EPOCH": 38792, "BSTAR": 0.00020298311, "MEAN_MOTION_DOT": 5.112e-05, "MEAN_MOTION_DDOT": 0}, "tle": {"line1": "1 43831U 18102A   25351.31635880  .00005112  00000+0  20298-3 0  9993", "line2": "2 43831  97.3354  51.4194 0011569  62.2683 297.9728 15.25713701387920"}}, "geometry": {"type": "Point", "coordinates": [-7.322539334091569, 81.46009140398986]}}, {"type": "Feature", "properties": {"norad_id": 43833, "name": "SAUDISAT 5B", "group": "resource", "lat": 35.39711945924057, "lon": -120.23735215712644, "alt_km": 483.9563400466632, "timestamp": "2025-12-17T15:50:09.434610+00:00", "meta": {"OBJECT_NAME": "SAUDISAT 5B", "OBJECT_ID": "2018-102C", "EPOCH": "2025-12-17T07:20:20.467680", "MEAN_MOTION": 15.26063876, "ECCENTRICITY": 0.00122895, "INCLINATION": 97.3448, "RA_OF_ASC_NODE": 54.1558, "ARG_OF_PERICENTER": 64.343, "MEAN_ANOMALY": 295.9076, "EPHEMERIS_TYPE": 0, "CLASSIFICATION_TYPE": "U", "NORAD_CAT_ID": 43833, "ELEMENT_SET_NO": 999, "REV_AT_EPOCH": 38803, "BSTAR": 0.00018822207, "MEAN_MOTION_DOT": 4.786e-05, "MEAN_MOTION_DDOT": 0}, "tle": {"line1": "1 43833U 18102C   25351.30579245  .00004786  00000+0  18822-3 0  9992", "line2": "2 43833  97.3448  54.1558 0012289  64.3430 295.9076 15.26063876388032"}}, "geometry": {"type": "Point", "coordinates": [-120.23735215712644, 35.39711945924057]}}, {"type": "Feature", "properties": {"norad_id": 44622, "name": "GAOFEN-10R", "group": "resource", "lat": 42.22361892782116, "lon": -68.1736277362533, "alt_km": 611.9344007107857, "timestamp": "2025-12-17T15:50:09.434621+00:00", "meta": {"OBJECT_NAME": "GAOFEN-10R", "OBJECT_ID": "2019-066A", "EPOCH": "2025-12-17T07:32:47.243616", "MEAN_MOTION": 14.82807594, "ECCENTRICITY": 0.00075726, "INCLINATION": 98.0283, "RA_OF_ASC_NODE": 298.8385, "ARG_OF_PERICENTER": 28.6855, "MEAN_ANOMALY": 331.4773, "EPHEMERIS_TYPE": 0, "CLASSIFICATION_TYPE": "U", "NORAD_CAT_ID": 44622, "ELEMENT_SET_NO": 999, "REV_AT_EPOCH": 33542, "BSTAR": 0.00016908478, "MEAN_MOTION_DOT": 1.314e-05, "MEAN_MOTION_DDOT": 0}, "tle": {"line1": "1 44622U 19066A   25351.31443569  .00001314  00000+0  16908-3 0  9996", "line2": "2 44622  98.0283 298.8385 0007572  28.6855 331.4773 14.82807594335421"}}, "geometry": {"type": "Point", "coordinates": [-68.1736277362533, 42.22361892782116]}}]}